FLOCK 4G-18             
1 62680U 25009BZ  26068.19114186  .00011766  00000+0  44319-3 0  9995
2 62680  97.4054 150.5008 0004100 335.7331  24.3715 15.27241676121267
STARLINK-35761          
1 66961U 25288C   26068.24377298  .00040508  00000+0  14731-2 0  9991
2 66961  43.0012  25.5874 0001115 282.5954  77.4773 15.27587608 15228
