[{"OBJECT_NAME":"FLOCK 4G-18","OBJECT_ID":"2025-009BZ","EPOCH":"2026-03-09T04:35:14.656704","MEAN_MOTION":15.27241676,"ECCENTRICITY":0.00041001,"INCLINATION":97.4054,"RA_OF_ASC_NODE":150.5008,"ARG_OF_PERICENTER":335.7331,"MEAN_ANOMALY":24.3715,"EPHEMERIS_TYPE":0,"CLASSIFICATION_TYPE":"U","NORAD_CAT_ID":62680,"ELEMENT_SET_NO":999,"REV_AT_EPOCH":12126,"BSTAR":0.0004431856,"MEAN_MOTION_DOT":0.00011766,"MEAN_MOTION_DDOT":0},{"OBJECT_NAME":"STARLINK-35761","OBJECT_ID":"2025-288C","EPOCH":"2026-03-09T05:51:01.985472","MEAN_MOTION":15.27587608,"ECCENTRICITY":0.00011159,"INCLINATION":43.0012,"RA_OF_ASC_NODE":25.5874,"ARG_OF_PERICENTER":282.5954,"MEAN_ANOMALY":77.4773,"EPHEMERIS_TYPE":0,"CLASSIFICATION_TYPE":"U","NORAD_CAT_ID":66961,"ELEMENT_SET_NO":999,"REV_AT_EPOCH":1522,"BSTAR":0.0014731485,"MEAN_MOTION_DOT":0.00040508,"MEAN_MOTION_DDOT":0}]
